[{"OBJECT_NAME":"STARLINK-4340","OBJECT_ID":"2022-099AF","EPOCH":"2026-03-09T21:30:59.344416","MEAN_MOTION":15.05648971,"ECCENTRICITY":2.13e-6,"INCLINATION":97.6034,"RA_OF_ASC_NODE":191.4695,"ARG_OF_PERICENTER":120.1148,"MEAN_ANOMALY":240.0081,"EPHEMERIS_TYPE":0,"CLASSIFICATION_TYPE":"U","NORAD_CAT_ID":53494,"ELEMENT_SET_NO":999,"REV_AT_EPOCH":19608,"BSTAR":5.6881355e-5,"MEAN_MOTION_DOT":7.6e-6,"MEAN_MOTION_DDOT":0},{"OBJECT_NAME":"CZ-2D R\/B","OBJECT_ID":"2025-222C","EPOCH":"2026-03-09T11:30:40.430304","MEAN_MOTION":15.00214245,"ECCENTRICITY":0.0055472,"INCLINATION":34.9016,"RA_OF_ASC_NODE":128.5538,"ARG_OF_PERICENTER":301.6169,"MEAN_ANOMALY":57.9132,"EPHEMERIS_TYPE":0,"CLASSIFICATION_TYPE":"U","NORAD_CAT_ID":65853,"ELEMENT_SET_NO":999,"REV_AT_EPOCH":2424,"BSTAR":0.00024152549,"MEAN_MOTION_DOT":3.158e-5,"MEAN_MOTION_DDOT":0}]
